STARLINK-11443 [DTC]    
1 62512U 25004B   26066.08166342  .00259693  00000+0  19446-2 0  9996
2 62512  42.9975  86.8719 0005142 292.2959  67.7363 15.71076872 66797
STARLINK-11440 [DTC]    
1 62513U 25004C   26066.19289156 -.00014242  00000+0 -10739-3 0  9996
2 62513  42.9985  85.9778 0001223 212.3473 147.7320 15.70905511 66819
STARLINK-11514 [DTC]    
1 62514U 25004D   26066.04540326  .00210376  00000+0  15944-2 0  9996
2 62514  43.0001  86.5790 0001237 225.3458 134.7309 15.70950881 66794
STARLINK-11508 [DTC]    
1 62515U 25004E   26066.10276432  .00256107  00000+0  19333-2 0  9996
2 62515  43.0002  86.1452 0001635 254.6950 105.3737 15.70903727 66809
STARLINK-11510 [DTC]    
1 62516U 25004F   26066.07103819  .00254611  00000+0  19202-2 0  9994
2 62516  42.9982  86.7847 0001143 264.2573  95.8164 15.70931534 66793
STARLINK-11512 [DTC]    
1 62517U 25004G   26066.08683399  .00330965  00000+0  24597-2 0  9992
2 62517  43.0000  86.0175 0001275 209.7406 150.3390 15.71049409 66801
STARLINK-11450 [DTC]    
1 62518U 25004H   26066.05511027  .00303836  00000+0  22722-2 0  9993
2 62518  42.9991  86.6571 0000815 259.2093 100.8683 15.70982048 66793
STARLINK-11507 [DTC]    
1 62519U 25004J   26066.06042054  .00279489  00000+0  20937-2 0  9996
2 62519  42.9968  86.6978 0000807 192.7861 167.2987 15.71015429 66799
STARLINK-11482 [DTC]    
1 62520U 25004K   26066.09214603  .00243236  00000+0  18334-2 0  9991
2 62520  42.9996  86.0586 0001636 260.4028  99.6655 15.70979902 66806
STARLINK-11528 [DTC]    
1 62521U 25004L   26066.07634793  .00284916  00000+0  21240-2 0  9996
2 62521  42.9991  86.8214 0002163 249.0327 111.0309 15.71114727 66799
STARLINK-11516 [DTC]    
1 62522U 25004M   26066.04449552  .00226875  00000+0  17125-2 0  9998
2 62522  43.0009  86.5698 0003014 288.8131  71.2410 15.70994172 66794
STARLINK-11527 [DTC]    
1 62523U 25004N   26066.09745613  .00305047  00000+0  22794-2 0  9998
2 62523  43.0000  86.0995 0001753 194.2145 165.8673 15.70998800 66809
STARLINK-32748          
1 62524U 25004P   26066.15904518  .00033951  00000+0  12375-2 0  9993
2 62524  42.9962 233.9854 0001035 284.1214  75.9523 15.27583780 66074
STARLINK-32777          
1 62525U 25004Q   26065.80654283  .00020147  00000+0  73919-3 0  9991
2 62525  43.0009 236.5055 0001850 278.6542  81.4100 15.27600446 66014
STARLINK-32741          
1 62526U 25004R   26065.46853377  .00025414  00000+0  92946-3 0  9992
2 62526  42.9982 234.8068 0001005 318.6890  41.3885 15.27594864 66001
STARLINK-32754          
1 62527U 25004S   26065.52058482  .00024314  00000+0  89032-3 0  9994
2 62527  42.9986 237.7923 0001202 261.1685  98.9030 15.27573700 65028
