[{"OBJECT_NAME":"STARLINK-11443 [DTC]","OBJECT_ID":"2025-004B","EPOCH":"2026-03-07T01:57:35.719488","MEAN_MOTION":15.71076872,"ECCENTRICITY":0.0005142,"INCLINATION":42.9975,"RA_OF_ASC_NODE":86.8719,"ARG_OF_PERICENTER":292.2959,"MEAN_ANOMALY":67.7363,"EPHEMERIS_TYPE":0,"CLASSIFICATION_TYPE":"U","NORAD_CAT_ID":62512,"ELEMENT_SET_NO":999,"REV_AT_EPOCH":6679,"BSTAR":0.001944554,"MEAN_MOTION_DOT":0.00259693,"MEAN_MOTION_DDOT":0},{"OBJECT_NAME":"STARLINK-11440 [DTC]","OBJECT_ID":"2025-004C","EPOCH":"2026-03-07T04:37:45.830784","MEAN_MOTION":15.70905511,"ECCENTRICITY":0.0001223,"INCLINATION":42.9985,"RA_OF_ASC_NODE":85.9778,"ARG_OF_PERICENTER":212.3473,"MEAN_ANOMALY":147.732,"EPHEMERIS_TYPE":0,"CLASSIFICATION_TYPE":"U","NORAD_CAT_ID":62513,"ELEMENT_SET_NO":999,"REV_AT_EPOCH":6681,"BSTAR":-0.00010739122,"MEAN_MOTION_DOT":-0.00014242,"MEAN_MOTION_DDOT":0},{"OBJECT_NAME":"STARLINK-11514 [DTC]","OBJECT_ID":"2025-004D","EPOCH":"2026-03-07T01:05:22.841664","MEAN_MOTION":15.70950881,"ECCENTRICITY":0.00012371,"INCLINATION":43.0001,"RA_OF_ASC_NODE":86.579,"ARG_OF_PERICENTER":225.3458,"MEAN_ANOMALY":134.7309,"EPHEMERIS_TYPE":0,"CLASSIFICATION_TYPE":"U","NORAD_CAT_ID":62514,"ELEMENT_SET_NO":999,"REV_AT_EPOCH":6679,"BSTAR":0.0015944225,"MEAN_MOTION_DOT":0.00210376,"MEAN_MOTION_DDOT":0},{"OBJECT_NAME":"STARLINK-11508 [DTC]","OBJECT_ID":"2025-004E","EPOCH":"2026-03-07T02:27:58.837248","MEAN_MOTION":15.70903727,"ECCENTRICITY":0.00016355,"INCLINATION":43.0002,"RA_OF_ASC_NODE":86.1452,"ARG_OF_PERICENTER":254.695,"MEAN_ANOMALY":105.3737,"EPHEMERIS_TYPE":0,"CLASSIFICATION_TYPE":"U","NORAD_CAT_ID":62515,"ELEMENT_SET_NO":999,"REV_AT_EPOCH":6680,"BSTAR":0.0019333451,"MEAN_MOTION_DOT":0.00256107,"MEAN_MOTION_DDOT":0},{"OBJECT_NAME":"STARLINK-11510 [DTC]","OBJECT_ID":"2025-004F","EPOCH":"2026-03-07T01:42:17.699616","MEAN_MOTION":15.70931534,"ECCENTRICITY":0.00011435,"INCLINATION":42.9982,"RA_OF_ASC_NODE":86.7847,"ARG_OF_PERICENTER":264.2573,"MEAN_ANOMALY":95.8164,"EPHEMERIS_TYPE":0,"CLASSIFICATION_TYPE":"U","NORAD_CAT_ID":62516,"ELEMENT_SET_NO":999,"REV_AT_EPOCH":6679,"BSTAR":0.0019201703,"MEAN_MOTION_DOT":0.00254611,"MEAN_MOTION_DDOT":0},{"OBJECT_NAME":"STARLINK-11512 [DTC]","OBJECT_ID":"2025-004G","EPOCH":"2026-03-07T02:05:02.456736","MEAN_MOTION":15.71049409,"ECCENTRICITY":0.00012755,"INCLINATION":43,"RA_OF_ASC_NODE":86.0175,"ARG_OF_PERICENTER":209.7406,"MEAN_ANOMALY":150.339,"EPHEMERIS_TYPE":0,"CLASSIFICATION_TYPE":"U","NORAD_CAT_ID":62517,"ELEMENT_SET_NO":999,"REV_AT_EPOCH":6680,"BSTAR":0.0024597237,"MEAN_MOTION_DOT":0.00330965,"MEAN_MOTION_DDOT":0},{"OBJECT_NAME":"STARLINK-11450 [DTC]","OBJECT_ID":"2025-004H","EPOCH":"2026-03-07T01:19:21.527328","MEAN_MOTION":15.70982048,"ECCENTRICITY":8.153e-5,"INCLINATION":42.9991,"RA_OF_ASC_NODE":86.6571,"ARG_OF_PERICENTER":259.2093,"MEAN_ANOMALY":100.8683,"EPHEMERIS_TYPE":0,"CLASSIFICATION_TYPE":"U","NORAD_CAT_ID":62518,"ELEMENT_SET_NO":999,"REV_AT_EPOCH":6679,"BSTAR":0.0022722196,"MEAN_MOTION_DOT":0.00303836,"MEAN_MOTION_DDOT":0},{"OBJECT_NAME":"STARLINK-11507 [DTC]","OBJECT_ID":"2025-004J","EPOCH":"2026-03-07T01:27:00.334656","MEAN_MOTION":15.71015429,"ECCENTRICITY":8.075e-5,"INCLINATION":42.9968,"RA_OF_ASC_NODE":86.6978,"ARG_OF_PERICENTER":192.7861,"MEAN_ANOMALY":167.2987,"EPHEMERIS_TYPE":0,"CLASSIFICATION_TYPE":"U","NORAD_CAT_ID":62519,"ELEMENT_SET_NO":999,"REV_AT_EPOCH":6679,"BSTAR":0.002093678,"MEAN_MOTION_DOT":0.00279489,"MEAN_MOTION_DDOT":0},{"OBJECT_NAME":"STARLINK-11482 [DTC]","OBJECT_ID":"2025-004K","EPOCH":"2026-03-07T02:12:41.416992","MEAN_MOTION":15.70979902,"ECCENTRICITY":0.00016362,"INCLINATION":42.9996,"RA_OF_ASC_NODE":86.0586,"ARG_OF_PERICENTER":260.4028,"MEAN_ANOMALY":99.6655,"EPHEMERIS_TYPE":0,"CLASSIFICATION_TYPE":"U","NORAD_CAT_ID":62520,"ELEMENT_SET_NO":999,"REV_AT_EPOCH":6680,"BSTAR":0.0018333599,"MEAN_MOTION_DOT":0.00243236,"MEAN_MOTION_DDOT":0},{"OBJECT_NAME":"STARLINK-11528 [DTC]","OBJECT_ID":"2025-004L","EPOCH":"2026-03-07T01:49:56.461152","MEAN_MOTION":15.71114727,"ECCENTRICITY":0.00021638,"INCLINATION":42.9991,"RA_OF_ASC_NODE":86.8214,"ARG_OF_PERICENTER":249.0327,"MEAN_ANOMALY":111.0309,"EPHEMERIS_TYPE":0,"CLASSIFICATION_TYPE":"U","NORAD_CAT_ID":62521,"ELEMENT_SET_NO":999,"REV_AT_EPOCH":6679,"BSTAR":0.0021240234,"MEAN_MOTION_DOT":0.00284916,"MEAN_MOTION_DDOT":0},{"OBJECT_NAME":"STARLINK-11516 [DTC]","OBJECT_ID":"2025-004M","EPOCH":"2026-03-07T01:04:04.412928","MEAN_MOTION":15.70994172,"ECCENTRICITY":0.00030147,"INCLINATION":43.0009,"RA_OF_ASC_NODE":86.5698,"ARG_OF_PERICENTER":288.8131,"MEAN_ANOMALY":71.241,"EPHEMERIS_TYPE":0,"CLASSIFICATION_TYPE":"U","NORAD_CAT_ID":62522,"ELEMENT_SET_NO":999,"REV_AT_EPOCH":6679,"BSTAR":0.0017125049,"MEAN_MOTION_DOT":0.00226875,"MEAN_MOTION_DDOT":0},{"OBJECT_NAME":"STARLINK-11527 [DTC]","OBJECT_ID":"2025-004N","EPOCH":"2026-03-07T02:20:20.209632","MEAN_MOTION":15.709988,"ECCENTRICITY":0.0001753,"INCLINATION":43,"RA_OF_ASC_NODE":86.0995,"ARG_OF_PERICENTER":194.2145,"MEAN_ANOMALY":165.8673,"EPHEMERIS_TYPE":0,"CLASSIFICATION_TYPE":"U","NORAD_CAT_ID":62523,"ELEMENT_SET_NO":999,"REV_AT_EPOCH":6680,"BSTAR":0.00227939,"MEAN_MOTION_DOT":0.00305047,"MEAN_MOTION_DDOT":0},{"OBJECT_NAME":"STARLINK-32748","OBJECT_ID":"2025-004P","EPOCH":"2026-03-07T03:49:01.503552","MEAN_MOTION":15.2758378,"ECCENTRICITY":0.00010353,"INCLINATION":42.9962,"RA_OF_ASC_NODE":233.9854,"ARG_OF_PERICENTER":284.1214,"MEAN_ANOMALY":75.9523,"EPHEMERIS_TYPE":0,"CLASSIFICATION_TYPE":"U","NORAD_CAT_ID":62524,"ELEMENT_SET_NO":999,"REV_AT_EPOCH":6607,"BSTAR":0.0012374719,"MEAN_MOTION_DOT":0.00033951,"MEAN_MOTION_DDOT":0},{"OBJECT_NAME":"STARLINK-32777","OBJECT_ID":"2025-004Q","EPOCH":"2026-03-06T19:21:25.300512","MEAN_MOTION":15.27600446,"ECCENTRICITY":0.00018506,"INCLINATION":43.0009,"RA_OF_ASC_NODE":236.5055,"ARG_OF_PERICENTER":278.6542,"MEAN_ANOMALY":81.41,"EPHEMERIS_TYPE":0,"CLASSIFICATION_TYPE":"U","NORAD_CAT_ID":62525,"ELEMENT_SET_NO":999,"REV_AT_EPOCH":6601,"BSTAR":0.00073919373,"MEAN_MOTION_DOT":0.00020147,"MEAN_MOTION_DDOT":0},{"OBJECT_NAME":"STARLINK-32741","OBJECT_ID":"2025-004R","EPOCH":"2026-03-06T11:14:41.317728","MEAN_MOTION":15.27594864,"ECCENTRICITY":0.00010056,"INCLINATION":42.9982,"RA_OF_ASC_NODE":234.8068,"ARG_OF_PERICENTER":318.689,"MEAN_ANOMALY":41.3885,"EPHEMERIS_TYPE":0,"CLASSIFICATION_TYPE":"U","NORAD_CAT_ID":62526,"ELEMENT_SET_NO":999,"REV_AT_EPOCH":6600,"BSTAR":0.00092946482,"MEAN_MOTION_DOT":0.00025414,"MEAN_MOTION_DDOT":0},{"OBJECT_NAME":"STARLINK-32754","OBJECT_ID":"2025-004S","EPOCH":"2026-03-06T12:29:38.528448","MEAN_MOTION":15.275737,"ECCENTRICITY":0.00012027,"INCLINATION":42.9986,"RA_OF_ASC_NODE":237.7923,"ARG_OF_PERICENTER":261.1685,"MEAN_ANOMALY":98.903,"EPHEMERIS_TYPE":0,"CLASSIFICATION_TYPE":"U","NORAD_CAT_ID":62527,"ELEMENT_SET_NO":999,"REV_AT_EPOCH":6502,"BSTAR":0.00089031687,"MEAN_MOTION_DOT":0.00024314,"MEAN_MOTION_DDOT":0}]
